1 57213U 23093A   24318.09598118  .00000010  00000+0  00000+0 0  9993
2 57213   0.0102 316.3651 0001983 291.3963 200.0093  1.00269709  5094
